NORAD_CAT_ID,OBJECT_NAME,OBJECT_TYPE,EPOCH,MEAN_MOTION,ECCENTRICITY,INCLINATION,RA_OF_ASC_NODE,ARG_OF_PERICENTER,MEAN_ANOMALY,BSTAR,MEAN_MOTION_DOT,MEAN_MOTION_DDOT,TLE_LINE0,TLE_LINE1,TLE_LINE2,SEMIMAJOR_AXIS,PERIOD,APOGEE,PERIGEE,DECAYED
55917.0,STARLINK-5855,PAYLOAD,2024-04-14 19:56:25,15.07879301,0.0003448,70.0009,249.1603,236.3929,123.6906,0.0025236,0.00038892,0.0,0 STARLINK-5855,1 55917U 23037D   24105.83084728  .00038892  00000-0  25236-2 0  9994,2 55917  70.0009 249.1603 0003448 236.3929 123.6906 15.07879301 59678,6920.818,95.498,545.07,540.297,0.0
55917.0,STARLINK-5855,PAYLOAD,2024-04-15 13:27:10,15.07939013,0.000339,70.0009,247.2929,233.039,127.0464,0.0026307,0.00040623,0.0,0 STARLINK-5855,1 55917U 23037D   24106.56054322  .00040623  00000-0  26307-2 0  9997,2 55917  70.0009 247.2929 0003390 233.0390 127.0464 15.07939013 59786,6920.636,95.495,544.847,540.155,0.0
55917.0,STARLINK-5855,PAYLOAD,2024-04-16 13:19:57,15.08070831,0.0003511,69.9987,244.7438,247.1766,112.9027,0.0044402,0.00069158,0.0,0 STARLINK-5855,1 55917U 23037D   24107.55552531  .00069158  00000-0  44402-2 0  9992,2 55917  69.9987 244.7438 0003511 247.1766 112.9027 15.08070831 60272,6920.232,95.486,544.527,539.668,0.0
55917.0,STARLINK-5855,PAYLOAD,2024-04-16 18:06:29,15.0809928,0.0003605,69.9985,244.2345,247.3474,112.7309,0.0045268,0.00070578,0.0,0 STARLINK-5855,1 55917U 23037D   24107.75451046  .00070578  00000-0  45268-2 0  9992,2 55917  69.9985 244.2345 0003605 247.3474 112.7309 15.08099280 59968,6920.145,95.484,544.505,539.516,0.0
55917.0,STARLINK-5855,PAYLOAD,2024-04-17 13:12:36,15.0817019,0.0003313,69.9993,242.1981,243.1097,116.9729,0.0025698,0.00039926,0.0,0 STARLINK-5855,1 55917U 23037D   24108.55042490  .00039926  00000-0  25698-2 0  9997,2 55917  69.9993 242.1981 0003313 243.1097 116.9729 15.08170190 60426,6919.928,95.48,544.086,539.501,0.0
55917.0,STARLINK-5855,PAYLOAD,2024-04-17 17:59:07,15.0819378,0.0003486,69.9981,241.6863,249.6663,110.4127,0.0031132,0.0004848,0.0,0 STARLINK-5855,1 55917U 23037D   24108.74939694  .00048480  00000-0  31132-2 0  9994,2 55917  69.9981 241.6863 0003486 249.6663 110.4127 15.08193780 60114,6919.856,95.478,544.134,539.309,0.0
55917.0,STARLINK-5855,PAYLOAD,2024-04-18 13:05:10,15.08258733,0.0003283,69.9996,239.6516,242.8359,117.2471,0.002597,0.0004045,0.0,0 STARLINK-5855,1 55917U 23037D   24109.54526199  .00040450  00000-0  25970-2 0  9997,2 55917  69.9996 239.6516 0003283 242.8359 117.2471 15.08258733 60234,6919.658,95.474,543.794,539.251,0.0
55917.0,STARLINK-5855,PAYLOAD,2024-04-18 17:51:40,15.08278935,0.0003255,70.0,239.1429,241.7683,118.3152,0.0028287,0.00044115,0.0,0 STARLINK-5855,1 55917U 23037D   24109.74422237  .00044115  00000-0  28287-2 0  9993,2 55917  70.0000 239.1429 0003255 241.7683 118.3152 15.08278935 60603,6919.596,95.473,543.713,539.209,0.0
55917.0,STARLINK-5855,PAYLOAD,2024-04-19 12:57:39,15.08363884,0.0003258,70.0,237.105,246.8166,113.2655,0.0034513,0.00054047,0.0,0 STARLINK-5855,1 55917U 23037D   24110.54003710  .00054047  00000-0  34513-2 0  9998,2 55917  70.0000 237.1050 0003258 246.8166 113.2655 15.08363884 60729,6919.336,95.468,543.455,538.947,0.0
55917.0,STARLINK-5855,PAYLOAD,2024-04-19 17:44:08,15.08391753,0.0003211,70.0001,236.5953,243.7681,116.3153,0.0038107,0.0005978,0.0,0 STARLINK-5855,1 55917U 23037D   24110.73898256  .00059780  00000-0  38107-2 0  9998,2 55917  70.0001 236.5953 0003211 243.7681 116.3153 15.08391753 60411,6919.251,95.466,543.338,538.894,0.0
55917.0,STARLINK-5855,PAYLOAD,2024-04-20 12:50:00,15.08507956,0.0003265,70.0002,234.5559,248.2142,111.8675,0.0026387,0.00041387,0.0,0 STARLINK-5855,1 55917U 23037D   24111.53472227  .00041387  00000-0  26387-2 0  9994,2 55917  70.0002 234.5559 0003265 248.2142 111.8675 15.08507956 60876,6918.896,95.459,543.02,538.501,0.0
55917.0,STARLINK-5855,PAYLOAD,2024-04-20 14:25:29,15.08513642,0.0003294,70.0003,234.3859,246.0394,114.0425,0.0026023,0.00040818,0.0,0 STARLINK-5855,1 55917U 23037D   24111.60103175  .00040818  00000-0  26023-2 0  9990,2 55917  70.0003 234.3859 0003294 246.0394 114.0425 15.08513642 60546,6918.878,95.458,543.022,538.464,0.0
55917.0,STARLINK-5855,PAYLOAD,2024-04-20 17:36:27,15.0853138,0.0003266,70.0003,234.0465,246.7558,113.3263,0.0026689,0.00041892,0.0,0 STARLINK-5855,1 55917U 23037D   24111.73364939  .00041892  00000-0  26689-2 0  9992,2 55917  70.0003 234.0465 0003266 246.7558 113.3263 15.08531380 60567,6918.824,95.457,542.949,538.429,0.0
55917.0,STARLINK-5855,PAYLOAD,2024-04-21 14:17:42,15.08640772,0.0003337,70.0003,231.8375,251.019,109.0613,0.0038045,0.00060092,0.0,0 STARLINK-5855,1 55917U 23037D   24112.59562831  .00060092  00000-0  38045-2 0  9990,2 55917  70.0003 231.8375 0003337 251.0190 109.0613 15.08640772 60693,6918.489,95.45,542.663,538.046,0.0
55917.0,STARLINK-5855,PAYLOAD,2024-04-21 17:28:39,15.08654501,0.0002865,70.0012,231.499,253.6443,106.4406,0.0039507,0.00062447,0.0,0 STARLINK-5855,1 55917U 23037D   24112.72823704  .00062447  00000-0  39507-2 0  9994,2 55917  70.0012 231.4990 0002865 253.6443 106.4406 15.08654501 60715,6918.447,95.449,542.295,538.33,0.0
55917.0,STARLINK-5855,PAYLOAD,2024-04-22 10:58:51,15.08759561,0.0003323,70.0013,229.6302,240.3723,119.7111,0.0037712,0.00059755,0.0,0 STARLINK-5855,1 55917U 23037D   24113.45754354  .00059755  00000-0  37712-2 0  9993,2 55917  70.0013 229.6302 0003323 240.3723 119.7111 15.08759561 61168,6918.126,95.443,542.29,537.692,0.0
55917.0,STARLINK-5855,PAYLOAD,2024-04-22 17:20:45,15.08690503,0.0002621,70.0019,228.9509,239.1872,120.9035,-0.0018724,-0.00029398,0.0,0 STARLINK-5855,1 55917U 23037D   24113.72274747 -.00029398  00000-0 -18724-2 0  9990,2 55917  70.0019 228.9509 0002621 239.1872 120.9035 15.08690503 61200,6918.337,95.447,542.016,538.389,0.0
55917.0,STARLINK-5855,PAYLOAD,2024-04-23 10:50:51,15.08869059,0.000335,70.0017,227.0827,247.7654,112.3155,0.003031,0.00048072,0.0,0 STARLINK-5855,1 55917U 23037D   24114.45198938  .00048072  00000-0  30310-2 0  9991,2 55917  70.0017 227.0827 0003350 247.7654 112.3155 15.08869059 61318,6917.792,95.436,541.974,537.339,0.0
55917.0,STARLINK-5855,PAYLOAD,2024-04-23 14:01:47,15.08881175,0.0003389,70.0018,226.743,247.5917,112.4888,0.0028463,0.00045132,0.0,0 STARLINK-5855,1 55917U 23037D   24114.58457640  .00045132  00000-0  28463-2 0  9993,2 55917  70.0018 226.7430 0003389 247.5917 112.4888 15.08881175 60997,6917.755,95.435,541.964,537.275,0.0
55917.0,STARLINK-5855,PAYLOAD,2024-04-23 17:12:42,15.08897674,0.0003405,70.0014,226.4026,255.0972,104.9815,0.002872,0.00045564,0.0,0 STARLINK-5855,1 55917U 23037D   24114.71716271  .00045564  00000-0  28720-2 0  9991,2 55917  70.0014 226.4026 0003405 255.0972 104.9815 15.08897674 61016,6917.704,95.434,541.925,537.214,0.0
55917.0,STARLINK-5855,PAYLOAD,2024-04-24 12:18:12,15.089935,0.0003148,70.004,224.3665,238.4402,121.6456,0.0018704,0.00029649,0.0,0 STARLINK-5855,1 55917U 23037D   24115.51264753  .00029649  00000-0  18704-2 0  9990,2 55917  70.0040 224.3665 0003148 238.4402 121.6456 15.08993500 61470,6917.411,95.428,541.454,537.099,0.0
55917.0,STARLINK-5855,PAYLOAD,2024-04-24 13:53:39,15.0899641,0.0003113,70.0033,224.1947,239.6081,120.4776,0.0026091,0.00041471,0.0,0 STARLINK-5855,1 55917U 23037D   24115.57893435  .00041471  00000-0  26091-2 0  9996,2 55917  70.0033 224.1947 0003113 239.6081 120.4776 15.08996410 61140,6917.402,95.428,541.421,537.114,0.0
55917.0,STARLINK-5855,PAYLOAD,2024-04-24 17:04:34,15.09006238,0.0003405,70.0021,223.8543,252.1503,107.929,0.0028254,0.00044953,0.0,0 STARLINK-5855,1 55917U 23037D   24115.71151091  .00044953  00000-0  28254-2 0  9998,2 55917  70.0021 223.8543 0003405 252.1503 107.9290 15.09006238 61162,6917.372,95.427,541.593,536.882,0.0
55917.0,STARLINK-5855,PAYLOAD,2024-04-25 10:34:32,15.09091068,0.0003501,70.0014,221.9838,262.3707,97.7061,0.0027457,0.00043776,0.0,0 STARLINK-5855,1 55917U 23037D   24116.44065245  .00043776  00000-0  27457-2 0  9990,2 55917  70.0014 221.9838 0003501 262.3707  97.7061 15.09091068 61613,6917.113,95.422,541.4,536.556,0.0
55917.0,STARLINK-5855,PAYLOAD,2024-04-25 13:45:26,15.09105035,0.0003517,70.0015,221.6442,261.3668,98.7099,0.0028109,0.00044842,0.0,0 STARLINK-5855,1 55917U 23037D   24116.57321977  .00044842  00000-0  28109-2 0  9991,2 55917  70.0015 221.6442 0003517 261.3668  98.7099 15.09105035 61290,6917.07,95.421,541.368,536.503,0.0
55917.0,STARLINK-5855,PAYLOAD,2024-04-25 16:56:19,15.09118505,0.0003527,70.0015,221.3045,261.2261,98.8504,0.0027589,0.00044022,0.0,0 STARLINK-5855,1 55917U 23037D   24116.70578640  .00044022  00000-0  27589-2 0  9998,2 55917  70.0015 221.3045 0003527 261.2261  98.8504 15.09118505 61316,6917.029,95.42,541.334,536.455,0.0
55917.0,STARLINK-5855,PAYLOAD,2024-04-26 05:39:53,15.09175058,0.000355,70.0013,219.9449,265.2808,94.7951,0.0033431,0.00053519,0.0,0 STARLINK-5855,1 55917U 23037D   24117.23603898  .00053519  00000-0  33431-2 0  9995,2 55917  70.0013 219.9449 0003550 265.2808  94.7951 15.09175058 61735,6916.856,95.416,541.177,536.266,0.0
55917.0,STARLINK-5855,PAYLOAD,2024-04-26 13:37:06,15.09214562,0.000353,70.0013,219.0947,261.0839,98.9926,0.0035046,0.00056191,0.0,0 STARLINK-5855,1 55917U 23037D   24117.56743603  .00056191  00000-0  35046-2 0  9993,2 55917  70.0013 219.0947 0003530 261.0839  98.9926 15.09214562 61445,6916.736,95.414,541.042,536.159,0.0
55917.0,STARLINK-5855,PAYLOAD,2024-04-26 16:47:59,15.09230434,0.0003563,70.0012,218.7548,261.2787,98.7974,0.0033777,0.00054161,0.0,0 STARLINK-5855,1 55917U 23037D   24117.69999291  .00054161  00000-0  33777-2 0  9997,2 55917  70.0012 218.7548 0003563 261.2787  98.7974 15.09230434 61466,6916.687,95.413,541.017,536.088,0.0
55917.0,STARLINK-5855,PAYLOAD,2024-04-27 13:28:40,15.09329283,0.0003598,70.0007,216.5453,263.4586,96.6169,0.0025978,0.00041672,0.0,0 STARLINK-5855,1 55917U 23037D   24118.56157519  .00041672  00000-0  25978-2 0  9990,2 55917  70.0007 216.5453 0003598 263.4586  96.6169 15.09329283 61936,6916.385,95.407,540.739,535.762,0.0
